[{"OBJECT_NAME":"STARLINK-31689","OBJECT_ID":"2024-076D","EPOCH":"2026-03-09T04:24:01.682784","MEAN_MOTION":15.275769,"ECCENTRICITY":6.023e-5,"INCLINATION":42.9995,"RA_OF_ASC_NODE":8.5445,"ARG_OF_PERICENTER":278.6438,"MEAN_ANOMALY":81.4346,"EPHEMERIS_TYPE":0,"CLASSIFICATION_TYPE":"U","NORAD_CAT_ID":59567,"ELEMENT_SET_NO":999,"REV_AT_EPOCH":10646,"BSTAR":-6.5234855e-5,"MEAN_MOTION_DOT":-2.056e-5,"MEAN_MOTION_DDOT":0},{"OBJECT_NAME":"KUIPER-00274","OBJECT_ID":"2026-030AE","EPOCH":"2026-03-09T22:00:01.999584","MEAN_MOTION":15.29896925,"ECCENTRICITY":0.00182929,"INCLINATION":51.8831,"RA_OF_ASC_NODE":218.6923,"ARG_OF_PERICENTER":71.2033,"MEAN_ANOMALY":115.2248,"EPHEMERIS_TYPE":0,"CLASSIFICATION_TYPE":"U","NORAD_CAT_ID":67792,"ELEMENT_SET_NO":999,"REV_AT_EPOCH":410,"BSTAR":0.0017989756,"MEAN_MOTION_DOT":0.00053102,"MEAN_MOTION_DDOT":0}]
